GLOBALSTAR M023         
1 25621U 99004A   24324.41765772 -.00000066  00000+0  21078-3 0  9995
2 25621  52.0120 332.1901 0010179  25.3746 121.6366 12.62483252189325
GLOBALSTAR M040         
1 25622U 99004B   24324.47014036 -.00000056  00000+0  26902-3 0  9992
2 25622  51.9932 335.8704 0000615 310.0666 200.9762 12.61990724189074
GLOBALSTAR M036         
1 25623U 99004C   24323.81161142 -.00000060  00000+0  33271-3 0  9993
2 25623  51.9971  74.8155 0010667  13.5278 158.0144 11.86580793154009
GLOBALSTAR M038         
1 25624U 99004D   24323.75681961 -.00000064  00000+0  25753-3 0  9993
2 25624  51.9986 317.5819 0001941 344.3747 186.7018 12.32513901176428
GLOBALSTAR M022         
1 25649U 99012A   24323.87714567 -.00000109  00000+0 -26580-3 0  9991
2 25649  52.0007 142.6167 0003490 106.6528  39.5117 12.02491684151070
GLOBALSTAR M041         
1 25650U 99012B   24323.89630033 -.00000041  00000+0  57522-3 0  9994
2 25650  52.0049  17.6051 0001981 261.1957  98.8656 11.96661482153106
GLOBALSTAR M046         
1 25651U 99012C   24323.77912823 -.00000126  00000+0 -40648-3 0  9998
2 25651  52.0037 100.6953 0002570 168.3233 339.6301 12.09400743158203
GLOBALSTAR M037         
1 25652U 99012D   24324.44114493 -.00000055  00000+0  27420-3 0  9994
2 25652  51.9990 102.8092 0002857  92.0885 303.3397 12.62426267184831
